GLOBALSTAR M068 [-]     
1 32266U 07048D   24021.51349656 -.00000058  00000+0  25413-3 0  9997
2 32266  51.9893  64.9947 0001231 107.2966  43.8822 12.62776905752784
GLOBALSTAR M079 [+]     
1 37188U 10054A   24021.87148383 -.00000077  00000+0  15032-3 0  9996
2 37188  52.0027 259.3596 0000692  69.6718  60.1952 12.62265899611751
GLOBALSTAR M074 [+]     
1 37189U 10054B   24021.97141755 -.00000062  00000+0  23036-3 0  9991
2 37189  52.0001 258.4579 0000980  70.3690  33.5506 12.62264652612377
GLOBALSTAR M076 [+]     
1 37190U 10054C   24021.83443789 -.00000067  00000+0  20519-3 0  9998
2 37190  52.0017 259.0023 0000804  38.3561  40.6870 12.62273449612077
GLOBALSTAR M077 [+]     
1 37191U 10054D   24021.82722406 -.00000072  00000+0  17540-3 0  9990
2 37191  52.0043 215.7300 0001105  81.8670  25.1084 12.62268987612440
GLOBALSTAR M075 [+]     
1 37192U 10054E   24021.92615802 -.00000079  00000+0  13631-3 0  9997
2 37192  51.9963 301.2645 0000528  63.8453  12.7078 12.62269712611317
GLOBALSTAR M073 [+]     
1 37193U 10054F   24021.94515997 -.00000069  00000+0  19173-3 0  9990
2 37193  52.0032 214.6293 0001014  81.6624  83.4959 12.62271881613148
GLOBALSTAR M083 [+]     
1 37739U 11033A   24021.70725978 -.00000090  00000+0  78403-4 0  9996
2 37739  51.9844 164.7842 0001042 114.5827 348.8191 12.62265304582133
GLOBALSTAR M088 [+]     
1 37740U 11033B   24021.53204649 -.00000089  00000+0  80874-4 0  9999
2 37740  51.9739  71.2405 0000614 150.8203 356.6117 12.62264148577651
GLOBALSTAR M091 [+]     
1 37741U 11033C   24021.92580465 -.00000083  00000+0  11486-3 0  9992
2 37741  52.0014  32.6808 0000363 160.2920 276.5687 12.62270323578497
GLOBALSTAR M085 [+]     
1 37742U 11033D   24021.29473021 -.00000085  00000+0  10293-3 0  9999
2 37742  51.9895 346.0961 0000229 103.0687  44.4227 12.62266636578923
GLOBALSTAR M081 [+]     
1 37743U 11033E   24021.94391538 -.00000094  00000+0  56218-4 0  9992
2 37743  51.9988 346.5894 0000020  88.3432  10.9026 12.62268586579156
GLOBALSTAR M089 [+]     
1 37744U 11033F   24021.28782421 -.00000075  00000+0  15829-3 0  9996
2 37744  51.9947 302.9118 0000722  37.2939 139.8420 12.62271645579914
GLOBALSTAR M084 [+]     
1 38040U 11080A   24021.60734493 -.00000097  00000+0  36184-4 0  9992
2 38040  51.9992 168.9537 0000960  82.5791  45.8000 12.62270351557933
GLOBALSTAR M080 [+]     
1 38041U 11080B   24021.82280458 -.00000102  00000+0  11067-4 0  9994
2 38041  52.0043 169.7251 0000811  74.4701  73.0451 12.62268564558084
GLOBALSTAR M082 [+]     
1 38042U 11080C   24021.58828295 -.00000108  00000+0 -24573-4 0  9998
2 38042  52.0073 125.8303 0001378 128.9954 333.0984 12.62265221558765
GLOBALSTAR M092 [+]     
1 38043U 11080D   24021.71578774 -.00000077  00000+0  14867-3 0  9996
2 38043  52.0053 215.7962 0001187  78.0060   1.3853 12.62275714557234
GLOBALSTAR M090 [+]     
1 38044U 11080E   24021.70827503 -.00000107  00000+0 -20104-4 0  9990
2 38044  51.9884 119.9329 0000993 129.7268  38.7068 12.62265384558892
GLOBALSTAR M086 [+]     
1 38045U 11080F   24021.73399814 -.00000108  00000+0 -22299-4 0  9991
2 38045  51.9895 120.3670 0000557 206.2445 318.3318 12.62266583558846
GLOBALSTAR M097 [+]     
1 39072U 13005A   24021.96148626 -.00000087  00000+0  96356-4 0  9999
2 39072  52.0066  33.6981 0000309 159.6731 200.4148 12.62260024506124
GLOBALSTAR M093 [+]     
1 39073U 13005B   24021.30151829 -.00000086  00000+0  10143-3 0  9995
2 39073  51.9828  29.8308 0000400 174.7608 185.3262 12.62260071505996
GLOBALSTAR M094 [+]     
1 39074U 13005C   24021.93515717 -.00000083  00000+0  11633-3 0  9997
2 39074  51.9973 301.7748 0000442  60.1934 299.8977 12.62271230507685
GLOBALSTAR M096 [+]     
1 39075U 13005D   24021.86941679 -.00000069  00000+0  19259-3 0  9996
2 39075  52.0099 350.0898 0000173 139.3314 220.7565 12.62267977506590
GLOBALSTAR M078 [+]     
1 39076U 13005E   24021.44714112 -.00000060  00000+0  24628-3 0  9998
2 39076  51.9878  76.5813 0001514 122.2051 237.8963 12.62257919505168
GLOBALSTAR M095 [+]     
1 39077U 13005F   24021.55233733 -.00000091  00000+0  73380-4 0  9990
2 39077  51.9810  73.7105 0001075 147.4572 212.6361 12.62262810505032
GLOBALSTAR M087 [+]     
1 52888U 22064A   24021.90423403 -.00000093  00000+0  66392-4 0  9991
2 52888  51.9782   1.9461 0009551 353.4422   6.6353 13.37562976 77814
